STARLINK-5572           
1 55378U 23013AZ  26067.70295535 -.00001211  00000+0 -74621-4 0  9994
2 55378  43.0037 318.4570 0001297 264.7105  95.3589 15.02524140171416
LEMUR-2-ALISIA          
1 62706U 25009DB  26068.73770453  .00009177  00000+0  72005-3 0  9995
2 62706  97.7037 151.6973 0006582 159.9869 200.1615 15.01147598 85230
